     2.100          NAVIGATION                              RINEX VERSION / TYPE
fic2rin                                 10/07/2010 00:11:02 PGM / RUN BY / DATE
                                                            END OF HEADER
 6 10 10  6  6  0  0.0  .466483645141D-03 -.145519152284D-10  .000000000000D+00
     .180000000000D+02 -.826562500000D+02  .500842290663D-08 -.223213532711D+01
    -.417605042458D-05  .617349136155D-02  .928528606892D-05  .515365961456D+04
     .280800000000D+06 -.298023223877D-07  .217100835286D+01  .180676579475D-06
     .934915518435D+00  .186031250000D+03 -.940472860412D+00 -.837427739370D-08
    -.533593654889D-09  .100000000000D+01  .160400000000D+04  .000000000000D+00
     .240000000000D+01  .000000000000D+00 -.512227416039D-08  .180000000000D+02
     .273606000000D+06  .400000000000D+01
 7 10 10  6  6  0  0.0 -.155204907060D-05  .227373675443D-12  .000000000000D+00
     .620000000000D+02  .641250000000D+02  .414910139816D-08  .310731493523D+00
     .311061739922D-05  .412457634229D-02  .123064965010D-04  .515369353294D+04
     .280800000000D+06  .558793544769D-07  .132983174026D+00  .316649675369D-07
     .973132364629D+00  .146312500000D+03  .311249358038D+01 -.792890169915D-08
     .326442169055D-09  .100000000000D+01  .160400000000D+04  .000000000000D+00
     .240000000000D+01  .000000000000D+00 -.102445483208D-07  .620000000000D+02
     .273606000000D+06  .400000000000D+01
 9 10 10  6  6  0  0.0  .347131863236D-04  .227373675443D-11  .000000000000D+00
     .108000000000D+03  .396875000000D+02  .407909848225D-08 -.401858716080D+00
     .219233334064D-05  .169950535055D-01  .126976519823D-04  .515370338440D+04
     .280800000000D+06 -.150874257088D-06  .102801286886D+00  .204890966415D-07
     .982177736331D+00  .148875000000D+03  .155242626259D+01 -.808819404860D-08
     .366443835285D-09  .100000000000D+01  .160400000000D+04  .000000000000D+00
     .340000000000D+01  .000000000000D+00 -.558793544769D-08  .108000000000D+03
     .273606000000D+06  .400000000000D+01
10 10 10  6  6  0  0.0 -.544153153896D-04 -.113686837722D-11  .000000000000D+00
     .580000000000D+02  .205937500000D+02  .540843956893D-08 -.246735619883D+01
     .772997736931D-06  .941331929062D-02  .228174030781D-05  .515351646614D+04
     .280800000000D+06  .447034835815D-07 -.194431942565D+01 -.154599547386D-06
     .951509850250D+00  .332156250000D+03  .663365166725D+00 -.870071956275D-08
     .269654089318D-09  .100000000000D+01  .160400000000D+04  .000000000000D+00
     .240000000000D+01  .000000000000D+00 -.279396772385D-08  .580000000000D+02
     .273606000000D+06  .400000000000D+01
11 10 10  6  6  0  0.0 -.945418141782D-04 -.261479726760D-11  .000000000000D+00
     .780000000000D+02  .562187500000D+02  .585595820988D-08  .185738522035D+00
     .298768281937D-05  .112869446166D-01  .130645930767D-04  .515378306389D+04
     .280800000000D+06 -.484287738800D-07  .302815866598D+01  .281259417534D-06
     .888727636856D+00  .909687500000D+02  .850854127295D+00 -.882179603464D-08
     .205008539429D-09  .100000000000D+01  .160400000000D+04  .000000000000D+00
     .240000000000D+01  .000000000000D+00 -.116415321827D-07  .780000000000D+02
     .273606000000D+06  .400000000000D+01
12 10 10  6  6  0  0.0 -.661793164909D-04  .363797880709D-11  .000000000000D+00
     .103000000000D+03  .249375000000D+02  .487627454498D-08  .295760283946D+00
     .108033418655D-05  .331226829439D-02  .326335430145D-05  .515358579445D+04
     .280800000000D+06  .465661287308D-07  .118696180890D+01  .931322574615D-08
     .971964274282D+00  .322031250000D+03 -.320847471099D+00 -.851428322550D-08
     .389301930274D-10  .100000000000D+01  .160400000000D+04  .000000000000D+00
     .340000000000D+01  .000000000000D+00 -.116415321827D-07  .103000000000D+03
     .273606000000D+06  .400000000000D+01
13 10 10  6  6  0  0.0  .295644160360D-03 -.102318153949D-11  .000000000000D+00
     .108000000000D+03 -.879375000000D+02  .386801826134D-08  .273843436740D+01
    -.446662306786D-05  .431995117106D-02  .114031136036D-04  .515370226097D+04
     .280800000000D+06  .188127160072D-06 -.845311508126D+00 -.540167093277D-07
     .991783105759D+00  .172781250000D+03  .180962073148D+01 -.774746557018D-08
    -.558237538548D-09  .100000000000D+01  .160400000000D+04  .000000000000D+00
     .340000000000D+01  .000000000000D+00 -.107102096081D-07  .108000000000D+03
     .273606000000D+06  .400000000000D+01
14 10 10  6  6  0  0.0  .953492708504D-04  .352429196937D-11  .000000000000D+00
     .850000000000D+02 -.921562500000D+02  .395230748661D-08  .269150812181D+01
    -.480562448502D-05  .568740605377D-02  .102072954178D-04  .515358421898D+04
     .280800000000D+06 -.540167093277D-07 -.867965704518D+00 -.931322574615D-07
     .984944108567D+00  .194656250000D+03 -.211709507886D+01 -.774996567432D-08
    -.523236080597D-09  .100000000000D+01  .160400000000D+04  .000000000000D+00
     .240000000000D+01  .000000000000D+00 -.884756445885D-08  .850000000000D+02
     .273606000000D+06  .400000000000D+01
15 10 10  6  6  0  0.0 -.199648551643D-03  .500222085975D-11  .000000000000D+00
     .600000000000D+02 -.113875000000D+03  .489734685130D-08  .254509699828D+01
    -.573694705963D-05  .279952923302D-02  .925175845623D-05  .515382834625D+04
     .280800000000D+06 -.298023223877D-07 -.936243464767D+00  .447034835815D-07
     .952327148934D+00  .196843750000D+03 -.209077895128D+00 -.831213194795D-08
    -.515378610445D-09  .100000000000D+01  .160400000000D+04  .000000000000D+00
     .240000000000D+01  .000000000000D+00 -.977888703346D-08  .600000000000D+02
     .273606000000D+06  .400000000000D+01
17 10 10  6  6  0  0.0  .173259992152D-03  .125055521494D-11  .000000000000D+00
     .180000000000D+02 -.878125000000D+02  .430696511667D-08 -.306279489144D+01
    -.446662306786D-05  .561855849810D-02  .111013650894D-04  .515366980934D+04
     .280800000000D+06  .502914190292D-07  .224802926788D+01 -.540167093277D-07
     .960531926445D+00  .162406250000D+03 -.250959725032D+01 -.795247410961D-08
    -.535379443560D-09  .100000000000D+01  .160400000000D+04  .000000000000D+00
     .240000000000D+01  .000000000000D+00 -.102445483208D-07  .180000000000D+02
     .273606000000D+06  .400000000000D+01
18 10 10  6  6  0  0.0  .971816480160D-04  .216004991671D-11  .000000000000D+00
     .790000000000D+02  .238437500000D+02  .564237788483D-08 -.171194235988D+01
     .128895044327D-05  .118583537405D-01  .141188502312D-05  .515372879601D+04
     .280800000000D+06  .189989805222D-06 -.194637134088D+01 -.111758708954D-07
     .935460446642D+00  .333656250000D+03 -.228938460732D+01 -.883429655534D-08
     .335371112410D-09  .100000000000D+01  .160400000000D+04  .000000000000D+00
     .240000000000D+01  .000000000000D+00 -.107102096081D-07  .790000000000D+02
     .273606000000D+06  .400000000000D+01
19 10 10  6  6  0  0.0 -.718361698091D-04 -.329691829393D-11  .000000000000D+00
     .900000000000D+02 -.672812500000D+02  .442161274935D-08  .237045613769D+01
    -.348873436451D-05  .670620566234D-02  .111758708954D-04  .515358018684D+04
     .280800000000D+06 -.465661287308D-07  .230272255371D+01  .931322574615D-07
     .958168433070D+00  .163218750000D+03 -.502945032879D-01 -.800426198107D-08
    -.558951854017D-09  .100000000000D+01  .160400000000D+04  .000000000000D+00
     .240000000000D+01  .000000000000D+00 -.149011611938D-07  .900000000000D+02
     .273606000000D+06  .400000000000D+01
20 10 10  6  6  0  0.0  .504800118506D-04 -.341060513165D-12  .000000000000D+00
     .640000000000D+02  .248750000000D+02  .579309844866D-08 -.132866532203D+01
     .150315463543D-05  .424368004315D-02  .210665166378D-05  .515380908203D+04
     .280800000000D+06  .279396772385D-07 -.200035538793D+01  .484287738800D-07
     .935477505730D+00  .327468750000D+03  .126974558687D+01 -.898716006558D-08
     .239295681911D-09  .100000000000D+01  .160400000000D+04  .000000000000D+00
     .240000000000D+01  .000000000000D+00 -.791624188423D-08  .640000000000D+02
     .273606000000D+06  .400000000000D+01
21 10 10  6  6  0  0.0 -.931485556066D-04 -.272848410532D-11  .000000000000D+00
     .660000000000D+02  .786250000000D+02  .497877881469D-08 -.536900049071D+00
     .438466668129D-05  .168635044247D-01  .112764537334D-04  .515363672447D+04
     .280800000000D+06  .141561031342D-06 -.300231238088D+01  .255182385445D-06
     .932750036874D+00  .149812500000D+03 -.244120974342D+01 -.854035574010D-08
     .445018536808D-09  .100000000000D+01  .160400000000D+04  .000000000000D+00
     .240000000000D+01  .000000000000D+00 -.121071934700D-07  .660000000000D+02
     .273606000000D+06  .400000000000D+01
22 10 10  6  6  0  0.0  .161514151841D-03 -.909494701773D-12  .000000000000D+00
     .890000000000D+02  .225312500000D+02  .572202405956D-08 -.261102848517D+01
     .102445483208D-05  .559044093825D-02  .181421637535D-05  .515371757507D+04
     .280800000000D+06  .173225998878D-06 -.194173909124D+01  .316649675369D-07
     .933146784646D+00  .328062500000D+03 -.192948784721D+01 -.892537177756D-08
     .234295473633D-09  .100000000000D+01  .160400000000D+04  .000000000000D+00
     .485000000000D+01  .000000000000D+00 -.176951289177D-07  .890000000000D+02
     .273606000000D+06  .400000000000D+01
23 10 10  6  6  0  0.0  .350343063474D-03 -.193267624127D-11  .000000000000D+00
     .240000000000D+02 -.902187500000D+02  .458447667614D-08  .192771771195D+01
    -.452809035778D-05  .700480060186D-02  .101923942566D-04  .515363813782D+04
     .280800000000D+06  .800937414169D-07 -.909260689809D+00  .208616256714D-06
     .966672636264D+00  .187875000000D+03  .311091547798D+01 -.814998233662D-08
    -.572523847916D-09  .100000000000D+01  .160400000000D+04  .000000000000D+00
     .240000000000D+01  .000000000000D+00 -.200234353542D-07  .240000000000D+02
     .273606000000D+06  .400000000000D+01
